{"type": "FeatureCollection", "features": [ {"type": "Feature", "properties": {"norad_id": 66386, "name": "STARLINK-35651", "group": "last-30-days", "lat": -6.61525787065916, "lon": 109.1068685117456, "alt_km": 448.9156190183903, "timestamp": "2025-12-08T13:49:30.575154+00:00", "meta": {"OBJECT_NAME": "STARLINK-35651", "OBJECT_ID": "2025-257G", "EPOCH": "2025-12-08T05:13:17.059584", "MEAN_MOTION": 15.39563255, "ECCENTRICITY": 0.00010047, "INCLINATION": 53.1605, "RA_OF_ASC_NODE": 285.8085, "ARG_OF_PERICENTER": 102.5868, "MEAN_ANOMALY": 257.5249, "EPHEMERIS_TYPE": 0, "CLASSIFICATION_TYPE": "U", "NORAD_CAT_ID": 66386, "ELEMENT_SET_NO": 999, "REV_AT_EPOCH": 567, "BSTAR": 0.0016414731, "MEAN_MOTION_DOT": 0.00065702, "MEAN_MOTION_DDOT": 0}, "tle": {"line1": "1 66386U 25257G   25342.21755856  .00065702  00000+0  16415-2 0  9993", "line2": "2 66386  53.1605 285.8085 0001004 102.5868 257.5249 15.39563255  5678"}}, "geometry": {"type": "Point", "coordinates": [109.1068685117456, -6.61525787065916]}}, {"type": "Feature", "properties": {"norad_id": 66387, "name": "STARLINK-35661", "group": "last-30-days", "lat": -8.114882553666902, "lon": 110.25159972748968, "alt_km": 449.9974041618334, "timestamp": "2025-12-08T13:49:30.575167+00:00", "meta": {"OBJECT_NAME": "STARLINK-35661", "OBJECT_ID": "2025-257H", "EPOCH": "2025-12-08T02:05:51.973440", "MEAN_MOTION": 15.39611188, "ECCENTRICITY": 0.00018353, "INCLINATION": 53.1611, "RA_OF_ASC_NODE": 286.4184, "ARG_OF_PERICENTER": 40.2871, "MEAN_ANOMALY": 319.827, "EPHEMERIS_TYPE": 0, "CLASSIFICATION_TYPE": "U", "NORAD_CAT_ID": 66387, "ELEMENT_SET_NO": 999, "REV_AT_EPOCH": 565, "BSTAR": 0.0019020074, "MEAN_MOTION_DOT": 0.00076424, "MEAN_MOTION_DDOT": 0}, "tle": {"line1": "1 66387U 25257H   25342.08740710  .00076424  00000+0  19020-2 0  9990", "line2": "2 66387  53.1611 286.4184 0001835  40.2871 319.8270 15.39611188  5650"}}, "geometry": {"type": "Point", "coordinates": [110.25159972748968, -8.114882553666902]}}, {"type": "Feature", "properties": {"norad_id": 66388, "name": "STARLINK-35647", "group": "last-30-days", "lat": -26.65330427638869, "lon": 126.16997147542685, "alt_km": 451.7050112955785, "timestamp": "2025-12-08T13:49:30.575178+00:00", "meta": {"OBJECT_NAME": "STARLINK-35647", "OBJECT_ID": "2025-257J", "EPOCH": "2025-12-08T03:33:07.741728", "MEAN_MOTION": 15.39625137, "ECCENTRICITY": 0.00026038, "INCLINATION": 53.1644, "RA_OF_ASC_NODE": 286.0862, "ARG_OF_PERICENTER": 88.2986, "MEAN_ANOMALY": 271.8317, "EPHEMERIS_TYPE": 0, "CLASSIFICATION_TYPE": "U", "NORAD_CAT_ID": 66388, "ELEMENT_SET_NO": 999, "REV_AT_EPOCH": 566, "BSTAR": 0.0012157593, "MEAN_MOTION_DOT": 0.00048551, "MEAN_MOTION_DDOT": 0}, "tle": {"line1": "1 66388U 25257J   25342.14800627  .00048551  00000+0  12158-2 0  9997", "line2": "2 66388  53.1644 286.0862 0002603  88.2986 271.8317 15.39625137  5668"}}, "geometry": {"type": "Point", "coordinates": [126.16997147542685, -26.65330427638869]}}, {"type": "Feature", "properties": {"norad_id": 66389, "name": "STARLINK-35694", "group": "last-30-days", "lat": -44.718510552053786, "lon": 151.950254409278, "alt_km": 452.6011254283212, "timestamp": "2025-12-08T13:49:30.575189+00:00", "meta": {"OBJECT_NAME": "STARLINK-35694", "OBJECT_ID": "2025-257K", "EPOCH": "2025-12-08T06:00:02.999808", "MEAN_MOTION": 15.39563097, "ECCENTRICITY": 0.0001181, "INCLINATION": 53.1591, "RA_OF_ASC_NODE": 285.5497, "ARG_OF_PERICENTER": 74.9333, "MEAN_ANOMALY": 158.6284, "EPHEMERIS_TYPE": 0, "CLASSIFICATION_TYPE": "U", "NORAD_CAT_ID": 66389, "ELEMENT_SET_NO": 999, "REV_AT_EPOCH": 577, "BSTAR": 0.0019676833, "MEAN_MOTION_DOT": 0.00078977, "MEAN_MOTION_DDOT": 0}, "tle": {"line1": "1 66389U 25257K   25342.25003472  .00078977  00000+0  19677-2 0  9991", "line2": "2 66389  53.1591 285.5497 0001181  74.9333 158.6284 15.39563097  5779"}}, "geometry": {"type": "Point", "coordinates": [151.950254409278, -44.718510552053786]}}, {"type": "Feature", "properties": {"norad_id": 66390, "name": "STARLINK-35665", "group": "last-30-days", "lat": 43.53751329290746, "lon": -30.916863128253944, "alt_km": 411.92998175268167, "timestamp": "2025-12-08T13:49:30.575200+00:00", "meta": {"OBJECT_NAME": "STARLINK-35665", "OBJECT_ID": "2025-257L", "EPOCH": "2025-12-08T04:16:51.292416", "MEAN_MOTION": 15.49311132, "ECCENTRICITY": 0.0001407, "INCLINATION": 53.1603, "RA_OF_ASC_NODE": 285.556, "ARG_OF_PERICENTER": 85.3677, "MEAN_ANOMALY": 274.7492, "EPHEMERIS_TYPE": 0, "CLASSIFICATION_TYPE": "U", "NORAD_CAT_ID": 66390, "ELEMENT_SET_NO": 999, "REV_AT_EPOCH": 577, "BSTAR": 0.0014290723, "MEAN_MOTION_DOT": 0.00079854, "MEAN_MOTION_DDOT": 0}, "tle": {"line1": "1 66390U 25257L   25342.17837144  .00079854  00000+0  14291-2 0  9997", "line2": "2 66390  53.1603 285.5560 0001407  85.3677 274.7492 15.49311132  5777"}}, "geometry": {"type": "Point", "coordinates": [-30.916863128253944, 43.53751329290746]}}, {"type": "Feature", "properties": {"norad_id": 66391, "name": "STARLINK-35656", "group": "last-30-days", "lat": -43.74012079480533, "lon": 149.846854398244, "alt_km": 452.07942172787716, "timestamp": "2025-12-08T13:49:30.575212+00:00", "meta": {"OBJECT_NAME": "STARLINK-35656", "OBJECT_ID": "2025-257M", "EPOCH": "2025-12-08T06:33:23.584896", "MEAN_MOTION": 15.39625286, "ECCENTRICITY": 9.076e-05, "INCLINATION": 53.1594, "RA_OF_ASC_NODE": 285.4288, "ARG_OF_PERICENTER": 100.2152, "MEAN_ANOMALY": 259.8955, "EPHEMERIS_TYPE": 0, "CLASSIFICATION_TYPE": "U", "NORAD_CAT_ID": 66391, "ELEMENT_SET_NO": 999, "REV_AT_EPOCH": 578, "BSTAR": 0.0018211814, "MEAN_MOTION_DOT": 0.00073161, "MEAN_MOTION_DDOT": 0}, "tle": {"line1": "1 66391U 25257M   25342.27318964  .00073161  00000+0  18212-2 0  9995", "line2": "2 66391  53.1594 285.4288 0000907 100.2152 259.8955 15.39625286  5788"}}, "geometry": {"type": "Point", "coordinates": [149.846854398244, -43.74012079480533]}}, {"type": "Feature", "properties": {"norad_id": 66392, "name": "STARLINK-35671", "group": "last-30-days", "lat": -27.945684739522232, "lon": 127.49840392117136, "alt_km": 451.4428963692135, "timestamp": "2025-12-08T13:49:30.575222+00:00", "meta": {"OBJECT_NAME": "STARLINK-35671", "OBJECT_ID": "2025-257N", "EPOCH": "2025-12-08T03:32:39.581376", "MEAN_MOTION": 15.39593668, "ECCENTRICITY": 0.00014385, "INCLINATION": 53.1602, "RA_OF_ASC_NODE": 286.0819, "ARG_OF_PERICENTER": 83.5677, "MEAN_ANOMALY": 276.5491, "EPHEMERIS_TYPE": 0, "CLASSIFICATION_TYPE": "U", "NORAD_CAT_ID": 66392, "ELEMENT_SET_NO": 999, "REV_AT_EPOCH": 566, "BSTAR": 0.0020374587, "MEAN_MOTION_DOT": 0.00081906, "MEAN_MOTION_DDOT": 0}, "tle": {"line1": "1 66392U 25257N   25342.14768034  .00081906  00000+0  20375-2 0  9998", "line2": "2 66392  53.1602 286.0819 0001438  83.5677 276.5491 15.39593668  5667"}}, "geometry": {"type": "Point", "coordinates": [127.49840392117136, -27.945684739522232]}}, {"type": "Feature", "properties": {"norad_id": 66393, "name": "STARLINK-35652", "group": "last-30-days", "lat": -52.897045989082436, "lon": -173.62266263309994, "alt_km": 452.93984507840105, "timestamp": "2025-12-08T13:49:30.575233+00:00", "meta": {"OBJECT_NAME": "STARLINK-35652", "OBJECT_ID": "2025-257P", "EPOCH": "2025-12-08T06:00:02.999808", "MEAN_MOTION": 15.39568592, "ECCENTRICITY": 0.0001301, "INCLINATION": 53.1587, "RA_OF_ASC_NODE": 285.5019, "ARG_OF_PERICENTER": 80.6246, "MEAN_ANOMALY": 176.8365, "EPHEMERIS_TYPE": 0, "CLASSIFICATION_TYPE": "U", "NORAD_CAT_ID": 66393, "ELEMENT_SET_NO": 999, "REV_AT_EPOCH": 577, "BSTAR": 0.0019497913, "MEAN_MOTION_DOT": 0.00078262, "MEAN_MOTION_DDOT": 0}, "tle": {"line1": "1 66393U 25257P   25342.25003472  .00078262  00000+0  19498-2 0  9994", "line2": "2 66393  53.1587 285.5019 0001301  80.6246 176.8365 15.39568592  5777"}}, "geometry": {"type": "Point", "coordinates": [-173.62266263309994, -52.897045989082436]}}, {"type": "Feature", "properties": {"norad_id": 66394, "name": "STARLINK-35672", "group": "last-30-days", "lat": -53.05276631670702, "lon": -170.5790240736322, "alt_km": 452.8881395428589, "timestamp": "2025-12-08T13:49:30.575244+00:00", "meta": {"OBJECT_NAME": "STARLINK-35672", "OBJECT_ID": "2025-257Q", "EPOCH": "2025-12-08T06:00:02.999808", "MEAN_MOTION": 15.39563478, "ECCENTRICITY": 0.00012156, "INCLINATION": 53.1587, "RA_OF_ASC_NODE": 285.4971, "ARG_OF_PERICENTER": 85.4055, "MEAN_ANOMALY": 173.9037, "EPHEMERIS_TYPE": 0, "CLASSIFICATION_TYPE": "U", "NORAD_CAT_ID": 66394, "ELEMENT_SET_NO": 999, "REV_AT_EPOCH": 577, "BSTAR": 0.0021290326, "MEAN_MOTION_DOT": 0.00085561, "MEAN_MOTION_DDOT": 0}, "tle": {"line1": "1 66394U 25257Q   25342.25003472  .00085561  00000+0  21290-2 0  9998", "line2": "2 66394  53.1587 285.4971 0001215  85.4055 173.9037 15.39563478  5771"}}, "geometry": {"type": "Point", "coordinates": [-170.5790240736322, -53.05276631670702]}}, {"type": "Feature", "properties": {"norad_id": 66395, "name": "STARLINK-35681", "group": "last-30-days", "lat": -48.263826615639346, "lon": -133.27008555784374, "alt_km": 452.62124476743884, "timestamp": "2025-12-08T13:49:30.575254+00:00", "meta": {"OBJECT_NAME": "STARLINK-35681", "OBJECT_ID": "2025-257R", "EPOCH": "2025-12-08T06:00:02.999808", "MEAN_MOTION": 15.39562116, "ECCENTRICITY": 0.00010417, "INCLINATION": 53.1593, "RA_OF_ASC_NODE": 285.4505, "ARG_OF_PERICENTER": 93.3337, "MEAN_ANOMALY": 189.9013, "EPHEMERIS_TYPE": 0, "CLASSIFICATION_TYPE": "U", "NORAD_CAT_ID": 66395, "ELEMENT_SET_NO": 999, "REV_AT_EPOCH": 561, "BSTAR": 0.0019924455, "MEAN_MOTION_DOT": 0.00079984, "MEAN_MOTION_DDOT": 0}, "tle": {"line1": "1 66395U 25257R   25342.25003472  .00079984  00000+0  19924-2 0  9992", "line2": "2 66395  53.1593 285.4505 0001041  93.3337 189.9013 15.39562116  5612"}}, "geometry": {"type": "Point", "coordinates": [-133.27008555784374, -48.263826615639346]}}]}